[{"OBJECT_NAME":"UNISAT-6","OBJECT_ID":"2014-033C","EPOCH":"2024-10-26T21:48:44.830944","MEAN_MOTION":14.81923614,"ECCENTRICITY":0.0050119,"INCLINATION":97.717,"RA_OF_ASC_NODE":98.2525,"ARG_OF_PERICENTER":234.4891,"MEAN_ANOMALY":125.1642,"EPHEMERIS_TYPE":0,"CLASSIFICATION_TYPE":"U","NORAD_CAT_ID":40012,"ELEMENT_SET_NO":999,"REV_AT_EPOCH":55733,"BSTAR":0.001491,"MEAN_MOTION_DOT":0.0001203,"MEAN_MOTION_DDOT":0},{"OBJECT_NAME":"DUCHIFAT-1","OBJECT_ID":"2014-033M","EPOCH":"2024-10-27T05:19:06.860352","MEAN_MOTION":15.1399907,"ECCENTRICITY":0.0012949,"INCLINATION":98.0999,"RA_OF_ASC_NODE":292.499,"ARG_OF_PERICENTER":26.519,"MEAN_ANOMALY":333.67,"EPHEMERIS_TYPE":0,"CLASSIFICATION_TYPE":"U","NORAD_CAT_ID":40021,"ELEMENT_SET_NO":999,"REV_AT_EPOCH":56405,"BSTAR":0.0025119,"MEAN_MOTION_DOT":0.00045873,"MEAN_MOTION_DDOT":0},{"OBJECT_NAME":"QB50P1","OBJECT_ID":"2014-033R","EPOCH":"2024-10-27T09:03:16.848576","MEAN_MOTION":15.03588064,"ECCENTRICITY":0.0014808,"INCLINATION":98.0597,"RA_OF_ASC_NODE":266.9317,"ARG_OF_PERICENTER":93.3314,"MEAN_ANOMALY":266.9605,"EPHEMERIS_TYPE":0,"CLASSIFICATION_TYPE":"U","NORAD_CAT_ID":40025,"ELEMENT_SET_NO":999,"REV_AT_EPOCH":56322,"BSTAR":0.0017469,"MEAN_MOTION_DOT":0.0002393,"MEAN_MOTION_DDOT":0},{"OBJECT_NAME":"KAITUO 1A","OBJECT_ID":"2015-049F","EPOCH":"2024-10-27T12:41:22.220160","MEAN_MOTION":15.85047105,"ECCENTRICITY":0.0005171,"INCLINATION":97.4643,"RA_OF_ASC_NODE":325.2311,"ARG_OF_PERICENTER":161.7509,"MEAN_ANOMALY":198.3948,"EPHEMERIS_TYPE":0,"CLASSIFICATION_TYPE":"U","NORAD_CAT_ID":40904,"ELEMENT_SET_NO":999,"REV_AT_EPOCH":50507,"BSTAR":0.00233,"MEAN_MOTION_DOT":0.00580885,"MEAN_MOTION_DDOT":0},{"OBJECT_NAME":"XW-2C","OBJECT_ID":"2015-049H","EPOCH":"2024-10-27T11:40:15.743712","MEAN_MOTION":15.58703594,"ECCENTRICITY":0.000668,"INCLINATION":97.4661,"RA_OF_ASC_NODE":322.9693,"ARG_OF_PERICENTER":156.4017,"MEAN_ANOMALY":203.7546,"EPHEMERIS_TYPE":0,"CLASSIFICATION_TYPE":"U","NORAD_CAT_ID":40906,"ELEMENT_SET_NO":999,"REV_AT_EPOCH":50495,"BSTAR":0.0014962,"MEAN_MOTION_DOT":0.00116539,"MEAN_MOTION_DDOT":0},{"OBJECT_NAME":"XW-2D","OBJECT_ID":"2015-049J","EPOCH":"2024-10-27T10:21:32.761152","MEAN_MOTION":15.85864858,"ECCENTRICITY":0.0005405,"INCLINATION":97.4509,"RA_OF_ASC_NODE":327.9571,"ARG_OF_PERICENTER":147.1297,"MEAN_ANOMALY":213.031,"EPHEMERIS_TYPE":0,"CLASSIFICATION_TYPE":"U","NORAD_CAT_ID":40907,"ELEMENT_SET_NO":999,"REV_AT_EPOCH":50534,"BSTAR":0.001984,"MEAN_MOTION_DOT":0.00510186,"MEAN_MOTION_DDOT":0},{"OBJECT_NAME":"LILACSAT-2","OBJECT_ID":"2015-049K","EPOCH":"2024-10-27T10:55:48.348480","MEAN_MOTION":15.30735337,"ECCENTRICITY":0.00093,"INCLINATION":97.5229,"RA_OF_ASC_NODE":311.4908,"ARG_OF_PERICENTER":238.3363,"MEAN_ANOMALY":121.6971,"EPHEMERIS_TYPE":0,"CLASSIFICATION_TYPE":"U","NORAD_CAT_ID":40908,"ELEMENT_SET_NO":999,"REV_AT_EPOCH":50369,"BSTAR":0.00086363,"MEAN_MOTION_DOT":0.00025667,"MEAN_MOTION_DDOT":0},{"OBJECT_NAME":"XW-2B","OBJECT_ID":"2015-049N","EPOCH":"2024-10-27T12:27:49.773312","MEAN_MOTION":15.81898729,"ECCENTRICITY":0.0005437,"INCLINATION":97.4507,"RA_OF_ASC_NODE":327.7967,"ARG_OF_PERICENTER":149.8198,"MEAN_ANOMALY":210.3385,"EPHEMERIS_TYPE":0,"CLASSIFICATION_TYPE":"U","NORAD_CAT_ID":40911,"ELEMENT_SET_NO":999,"REV_AT_EPOCH":50520,"BSTAR":0.0017686,"MEAN_MOTION_DOT":0.00371625,"MEAN_MOTION_DDOT":0},{"OBJECT_NAME":"FOX-1A (AO-85)","OBJECT_ID":"2015-058D","EPOCH":"2024-10-26T19:36:21.695328","MEAN_MOTION":14.84345275,"ECCENTRICITY":0.0188588,"INCLINATION":64.7782,"RA_OF_ASC_NODE":331.3222,"ARG_OF_PERICENTER":264.5891,"MEAN_ANOMALY":93.3679,"EPHEMERIS_TYPE":0,"CLASSIFICATION_TYPE":"U","NORAD_CAT_ID":40967,"ELEMENT_SET_NO":999,"REV_AT_EPOCH":2451,"BSTAR":0.0012437,"MEAN_MOTION_DOT":0.00014262,"MEAN_MOTION_DDOT":0},{"OBJECT_NAME":"CAS-2T & KS-1Q","OBJECT_ID":"2016-066G","EPOCH":"2024-10-26T19:55:35.844672","MEAN_MOTION":14.42180092,"ECCENTRICITY":0.035157,"INCLINATION":98.4479,"RA_OF_ASC_NODE":11.141,"ARG_OF_PERICENTER":140.5399,"MEAN_ANOMALY":222.1971,"EPHEMERIS_TYPE":0,"CLASSIFICATION_TYPE":"U","NORAD_CAT_ID":41847,"ELEMENT_SET_NO":999,"REV_AT_EPOCH":41846,"BSTAR":0.0008476,"MEAN_MOTION_DOT":5.861e-5,"MEAN_MOTION_DDOT":0},{"OBJECT_NAME":"ZHUHAI-1 02 (CAS-4B)","OBJECT_ID":"2017-034B","EPOCH":"2024-10-27T10:00:25.735392","MEAN_MOTION":15.36830963,"ECCENTRICITY":0.0012951,"INCLINATION":43.0143,"RA_OF_ASC_NODE":195.1757,"ARG_OF_PERICENTER":175.3914,"MEAN_ANOMALY":184.7063,"EPHEMERIS_TYPE":0,"CLASSIFICATION_TYPE":"U","NORAD_CAT_ID":42759,"ELEMENT_SET_NO":999,"REV_AT_EPOCH":40768,"BSTAR":0.0014833,"MEAN_MOTION_DOT":0.00054829,"MEAN_MOTION_DDOT":0},{"OBJECT_NAME":"ZHUHAI-1 01 (CAS-4A)","OBJECT_ID":"2017-034D","EPOCH":"2024-10-27T09:43:44.450976","MEAN_MOTION":15.37002008,"ECCENTRICITY":0.0013447,"INCLINATION":43.018,"RA_OF_ASC_NODE":193.4651,"ARG_OF_PERICENTER":184.5488,"MEAN_ANOMALY":175.5247,"EPHEMERIS_TYPE":0,"CLASSIFICATION_TYPE":"U","NORAD_CAT_ID":42761,"ELEMENT_SET_NO":999,"REV_AT_EPOCH":40769,"BSTAR":0.0015163,"MEAN_MOTION_DOT":0.00056391,"MEAN_MOTION_DDOT":0},{"OBJECT_NAME":"RADFXSAT (FOX-1B)","OBJECT_ID":"2017-073E","EPOCH":"2024-10-27T02:11:51.965952","MEAN_MOTION":14.97722281,"ECCENTRICITY":0.0196686,"INCLINATION":97.5546,"RA_OF_ASC_NODE":172.1051,"ARG_OF_PERICENTER":211.0475,"MEAN_ANOMALY":147.9005,"EPHEMERIS_TYPE":0,"CLASSIFICATION_TYPE":"U","NORAD_CAT_ID":43017,"ELEMENT_SET_NO":999,"REV_AT_EPOCH":37537,"BSTAR":0.001245,"MEAN_MOTION_DOT":0.00021777,"MEAN_MOTION_DDOT":0},{"OBJECT_NAME":"DIWATA-2B","OBJECT_ID":"2018-084H","EPOCH":"2024-10-27T11:04:33.079872","MEAN_MOTION":14.96388662,"ECCENTRICITY":0.0007843,"INCLINATION":98.085,"RA_OF_ASC_NODE":103.5522,"ARG_OF_PERICENTER":318.6504,"MEAN_ANOMALY":41.4121,"EPHEMERIS_TYPE":0,"CLASSIFICATION_TYPE":"U","NORAD_CAT_ID":43678,"ELEMENT_SET_NO":999,"REV_AT_EPOCH":32669,"BSTAR":0.00055367,"MEAN_MOTION_DOT":6.216e-5,"MEAN_MOTION_DDOT":0},{"OBJECT_NAME":"ES'HAIL 2","OBJECT_ID":"2018-090A","EPOCH":"2024-10-26T20:28:04.117152","MEAN_MOTION":1.00273924,"ECCENTRICITY":0.0001692,"INCLINATION":0.0371,"RA_OF_ASC_NODE":74.1051,"ARG_OF_PERICENTER":177.9009,"MEAN_ANOMALY":116.5359,"EPHEMERIS_TYPE":0,"CLASSIFICATION_TYPE":"U","NORAD_CAT_ID":43700,"ELEMENT_SET_NO":999,"REV_AT_EPOCH":2167,"BSTAR":0,"MEAN_MOTION_DOT":1.42e-6,"MEAN_MOTION_DDOT":0},{"OBJECT_NAME":"FOX-1CLIFF (AO-95)","OBJECT_ID":"2018-099N","EPOCH":"2024-10-27T03:00:59.781024","MEAN_MOTION":15.09861027,"ECCENTRICITY":0.0011291,"INCLINATION":97.5287,"RA_OF_ASC_NODE":356.3657,"ARG_OF_PERICENTER":271.337,"MEAN_ANOMALY":88.6566,"EPHEMERIS_TYPE":0,"CLASSIFICATION_TYPE":"U","NORAD_CAT_ID":43770,"ELEMENT_SET_NO":999,"REV_AT_EPOCH":32244,"BSTAR":0.0014481,"MEAN_MOTION_DOT":0.00023468,"MEAN_MOTION_DDOT":0},{"OBJECT_NAME":"ITASAT","OBJECT_ID":"2018-099AE","EPOCH":"2024-10-27T02:42:41.989536","MEAN_MOTION":15.07466533,"ECCENTRICITY":0.0014972,"INCLINATION":97.4938,"RA_OF_ASC_NODE":354.7946,"ARG_OF_PERICENTER":261.4385,"MEAN_ANOMALY":98.5146,"EPHEMERIS_TYPE":0,"CLASSIFICATION_TYPE":"U","NORAD_CAT_ID":43786,"ELEMENT_SET_NO":999,"REV_AT_EPOCH":32242,"BSTAR":0.0012292,"MEAN_MOTION_DOT":0.00018659,"MEAN_MOTION_DDOT":0}]
