UNISAT-6                
1 40012U 14033C   24300.90885221  .00012030  00000+0  14910-2 0  9994
2 40012  97.7170  98.2525 0050119 234.4891 125.1642 14.81923614557331
DUCHIFAT-1              
1 40021U 14033M   24301.22160718  .00045873  00000+0  25119-2 0  9991
2 40021  98.0999 292.4990 0012949  26.5190 333.6700 15.13999070564052
QB50P1                  
1 40025U 14033R   24301.37727834  .00023930  00000+0  17469-2 0  9998
2 40025  98.0597 266.9317 0014808  93.3314 266.9605 15.03588064563221
KAITUO 1A               
1 40904U 15049F   24301.52872940  .00580885  00000+0  23300-2 0  9996
2 40904  97.4643 325.2311 0005171 161.7509 198.3948 15.85047105505077
XW-2C                   
1 40906U 15049H   24301.48629333  .00116539  00000+0  14962-2 0  9994
2 40906  97.4661 322.9693 0006680 156.4017 203.7546 15.58703594504959
XW-2D                   
1 40907U 15049J   24301.43162918  .00510186  00000+0  19840-2 0  9997
2 40907  97.4509 327.9571 0005405 147.1297 213.0310 15.85864858505340
LILACSAT-2              
1 40908U 15049K   24301.45542070  .00025667  00000+0  86363-3 0  9991
2 40908  97.5229 311.4908 0009300 238.3363 121.6971 15.30735337503690
XW-2B                   
1 40911U 15049N   24301.51932608  .00371625  00000+0  17686-2 0  9991
2 40911  97.4507 327.7967 0005437 149.8198 210.3385 15.81898729505201
FOX-1A (AO-85)          
1 40967U 15058D   24300.81691777  .00014262  00000+0  12437-2 0  9993
2 40967  64.7782 331.3222 0188588 264.5891  93.3679 14.84345275 24513
CAS-2T & KS-1Q          
1 41847U 16066G   24300.83027598  .00005861  00000+0  84760-3 0  9991
2 41847  98.4479  11.1410 0351570 140.5399 222.1971 14.42180092418465
ZHUHAI-1 02 (CAS-4B)    
1 42759U 17034B   24301.41696453  .00054829  00000+0  14833-2 0  9998
2 42759  43.0143 195.1757 0012951 175.3914 184.7063 15.36830963407685
ZHUHAI-1 01 (CAS-4A)    
1 42761U 17034D   24301.40537559  .00056391  00000+0  15163-2 0  9994
2 42761  43.0180 193.4651 0013447 184.5488 175.5247 15.37002008407697
RADFXSAT (FOX-1B)       
1 43017U 17073E   24301.09157368  .00021777  00000+0  12450-2 0  9999
2 43017  97.5546 172.1051 0196686 211.0475 147.9005 14.97722281375370
DIWATA-2B               
1 43678U 18084H   24301.46149398  .00006216  00000+0  55367-3 0  9996
2 43678  98.0850 103.5522 0007843 318.6504  41.4121 14.96388662326699
ES'HAIL 2               
1 43700U 18090A   24300.85282543  .00000142  00000+0  00000+0 0  9993
2 43700   0.0371  74.1051 0001692 177.9009 116.5359  1.00273924 21670
FOX-1CLIFF (AO-95)      
1 43770U 18099N   24301.12569191  .00023468  00000+0  14481-2 0  9994
2 43770  97.5287 356.3657 0011291 271.3370  88.6566 15.09861027322446
ITASAT                  
1 43786U 18099AE  24301.11298599  .00018659  00000+0  12292-2 0  9995
2 43786  97.4938 354.7946 0014972 261.4385  98.5146 15.07466533322426
